{"type": "FeatureCollection", "features": [ {"type": "Feature", "properties": {"norad_id": 54234, "name": "NOAA 21 (JPSS-2)", "group": "weather", "lat": -45.461267485182006, "lon": 103.56039789304533, "alt_km": 834.8029333943587, "timestamp": "2025-12-22T08:58:19.987078+00:00", "meta": {"OBJECT_NAME": "NOAA 21 (JPSS-2)", "OBJECT_ID": "2022-150A", "EPOCH": "2025-12-22T02:50:07.814400", "MEAN_MOTION": 14.19526576, "ECCENTRICITY": 0.0001803, "INCLINATION": 98.7475, "RA_OF_ASC_NODE": 292.3098, "ARG_OF_PERICENTER": 19.2621, "MEAN_ANOMALY": 340.8623, "EPHEMERIS_TYPE": 0, "CLASSIFICATION_TYPE": "U", "NORAD_CAT_ID": 54234, "ELEMENT_SET_NO": 999, "REV_AT_EPOCH": 16142, "BSTAR": 4.9846e-05, "MEAN_MOTION_DOT": 6.1e-07, "MEAN_MOTION_DDOT": 0}, "tle": {"line1": "1 54234U 22150A   25356.11814600  .00000061  00000+0  49846-4 0  9991", "line2": "2 54234  98.7475 292.3098 0001803  19.2621 340.8623 14.19526576161422"}}, "geometry": {"type": "Point", "coordinates": [103.56039789304533, -45.461267485182006]}}, {"type": "Feature", "properties": {"norad_id": 54743, "name": "METEOSAT-12 (MTG-I1)", "group": "weather", "lat": -0.2574970099966706, "lon": -134.57095662621506, "alt_km": 35781.45949005913, "timestamp": "2025-12-22T08:58:19.987090+00:00", "meta": {"OBJECT_NAME": "METEOSAT-12 (MTG-I1)", "OBJECT_ID": "2022-170C", "EPOCH": "2025-12-22T01:10:47.768736", "MEAN_MOTION": 1.00270724, "ECCENTRICITY": 0.0001513, "INCLINATION": 0.6961, "RA_OF_ASC_NODE": 25.1478, "ARG_OF_PERICENTER": 239.7839, "MEAN_ANOMALY": 203.3139, "EPHEMERIS_TYPE": 0, "CLASSIFICATION_TYPE": "U", "NORAD_CAT_ID": 54743, "ELEMENT_SET_NO": 999, "REV_AT_EPOCH": 1120, "BSTAR": 0, "MEAN_MOTION_DOT": 1.4e-07, "MEAN_MOTION_DDOT": 0}, "tle": {"line1": "1 54743U 22170C   25356.04916399  .00000014  00000+0  00000+0 0  9990", "line2": "2 54743   0.6961  25.1478 0001513 239.7839 203.3139  1.00270724 11203"}}, "geometry": {"type": "Point", "coordinates": [-134.57095662621506, -0.2574970099966706]}}, {"type": "Feature", "properties": {"norad_id": 55973, "name": "TIANMU-1 03", "group": "weather", "lat": 39.51208260429045, "lon": 153.0493515750115, "alt_km": 436.97978012055864, "timestamp": "2025-12-22T08:58:19.987101+00:00", "meta": {"OBJECT_NAME": "TIANMU-1 03", "OBJECT_ID": "2023-039A", "EPOCH": "2025-12-22T04:07:29.777088", "MEAN_MOTION": 15.41182514, "ECCENTRICITY": 0.0003942, "INCLINATION": 97.5109, "RA_OF_ASC_NODE": 159.0884, "ARG_OF_PERICENTER": 33.8992, "MEAN_ANOMALY": 326.2506, "EPHEMERIS_TYPE": 0, "CLASSIFICATION_TYPE": "U", "NORAD_CAT_ID": 55973, "ELEMENT_SET_NO": 999, "REV_AT_EPOCH": 15351, "BSTAR": 0.00039571, "MEAN_MOTION_DOT": 0.00016346, "MEAN_MOTION_DDOT": 0}, "tle": {"line1": "1 55973U 23039A   25356.17187242  .00016346  00000+0  39571-3 0  9996", "line2": "2 55973  97.5109 159.0884 0003942  33.8992 326.2506 15.41182514153510"}}, "geometry": {"type": "Point", "coordinates": [153.0493515750115, 39.51208260429045]}}, {"type": "Feature", "properties": {"norad_id": 55974, "name": "TIANMU-1 04", "group": "weather", "lat": 14.000057050965932, "lon": -19.63337813845505, "alt_km": 445.0576118724348, "timestamp": "2025-12-22T08:58:19.987112+00:00", "meta": {"OBJECT_NAME": "TIANMU-1 04", "OBJECT_ID": "2023-039B", "EPOCH": "2025-12-22T03:34:55.047936", "MEAN_MOTION": 15.41522776, "ECCENTRICITY": 0.0004577, "INCLINATION": 97.504, "RA_OF_ASC_NODE": 158.2524, "ARG_OF_PERICENTER": 27.8337, "MEAN_ANOMALY": 332.3153, "EPHEMERIS_TYPE": 0, "CLASSIFICATION_TYPE": "U", "NORAD_CAT_ID": 55974, "ELEMENT_SET_NO": 999, "REV_AT_EPOCH": 15351, "BSTAR": 0.00040133, "MEAN_MOTION_DOT": 0.0001677, "MEAN_MOTION_DDOT": 0}, "tle": {"line1": "1 55974U 23039B   25356.14924824  .00016770  00000+0  40133-3 0  9996", "line2": "2 55974  97.5040 158.2524 0004577  27.8337 332.3153 15.41522776153512"}}, "geometry": {"type": "Point", "coordinates": [-19.63337813845505, 14.000057050965932]}}, {"type": "Feature", "properties": {"norad_id": 55975, "name": "TIANMU-1 05", "group": "weather", "lat": -4.512116527277552, "lon": -21.620389716890696, "alt_km": 448.28110276327334, "timestamp": "2025-12-22T08:58:19.987122+00:00", "meta": {"OBJECT_NAME": "TIANMU-1 05", "OBJECT_ID": "2023-039C", "EPOCH": "2025-12-22T05:03:29.403072", "MEAN_MOTION": 15.41140511, "ECCENTRICITY": 0.0004076, "INCLINATION": 97.5087, "RA_OF_ASC_NODE": 158.8084, "ARG_OF_PERICENTER": 52.7357, "MEAN_ANOMALY": 307.4261, "EPHEMERIS_TYPE": 0, "CLASSIFICATION_TYPE": "U", "NORAD_CAT_ID": 55975, "ELEMENT_SET_NO": 999, "REV_AT_EPOCH": 15350, "BSTAR": 0.00040885, "MEAN_MOTION_DOT": 0.0001687, "MEAN_MOTION_DDOT": 0}, "tle": {"line1": "1 55975U 23039C   25356.21075698  .00016870  00000+0  40885-3 0  9996", "line2": "2 55975  97.5087 158.8084 0004076  52.7357 307.4261 15.41140511153509"}}, "geometry": {"type": "Point", "coordinates": [-21.620389716890696, -4.512116527277552]}}, {"type": "Feature", "properties": {"norad_id": 55976, "name": "TIANMU-1 06", "group": "weather", "lat": 24.157426653143546, "lon": -17.158875404381433, "alt_km": 441.92676581397063, "timestamp": "2025-12-22T08:58:19.987135+00:00", "meta": {"OBJECT_NAME": "TIANMU-1 06", "OBJECT_ID": "2023-039D", "EPOCH": "2025-12-22T05:11:04.017408", "MEAN_MOTION": 15.41576812, "ECCENTRICITY": 0.0004342, "INCLINATION": 97.5097, "RA_OF_ASC_NODE": 159.2867, "ARG_OF_PERICENTER": 46.9012, "MEAN_ANOMALY": 313.2597, "EPHEMERIS_TYPE": 0, "CLASSIFICATION_TYPE": "U", "NORAD_CAT_ID": 55976, "ELEMENT_SET_NO": 999, "REV_AT_EPOCH": 15352, "BSTAR": 0.0004117, "MEAN_MOTION_DOT": 0.00017237, "MEAN_MOTION_DDOT": 0}, "tle": {"line1": "1 55976U 23039D   25356.21601872  .00017237  00000+0  41170-3 0  9992", "line2": "2 55976  97.5097 159.2867 0004342  46.9012 313.2597 15.41576812153520"}}, "geometry": {"type": "Point", "coordinates": [-17.158875404381433, 24.157426653143546]}}, {"type": "Feature", "properties": {"norad_id": 56232, "name": "FENGYUN 3G", "group": "weather", "lat": 17.389076284188185, "lon": -167.03212575198734, "alt_km": 408.7090228657398, "timestamp": "2025-12-22T08:58:19.987145+00:00", "meta": {"OBJECT_NAME": "FENGYUN 3G", "OBJECT_ID": "2023-055A", "EPOCH": "2025-12-22T02:42:05.196960", "MEAN_MOTION": 15.54168405, "ECCENTRICITY": 0.0009246, "INCLINATION": 49.992, "RA_OF_ASC_NODE": 179.0672, "ARG_OF_PERICENTER": 190.9654, "MEAN_ANOMALY": 169.1114, "EPHEMERIS_TYPE": 0, "CLASSIFICATION_TYPE": "U", "NORAD_CAT_ID": 56232, "ELEMENT_SET_NO": 999, "REV_AT_EPOCH": 15248, "BSTAR": 0.00051463, "MEAN_MOTION_DOT": 0.00033891, "MEAN_MOTION_DDOT": 0}, "tle": {"line1": "1 56232U 23055A   25356.11256015  .00033891  00000+0  51463-3 0  9990", "line2": "2 56232  49.9920 179.0672 0009246 190.9654 169.1114 15.54168405152482"}}, "geometry": {"type": "Point", "coordinates": [-167.03212575198734, 17.389076284188185]}}, {"type": "Feature", "properties": {"norad_id": 57166, "name": "METEOR-M2 3", "group": "weather", "lat": -69.74562789657611, "lon": 74.06671628680267, "alt_km": 817.4853819278369, "timestamp": "2025-12-22T08:58:19.987156+00:00", "meta": {"OBJECT_NAME": "METEOR-M2 3", "OBJECT_ID": "2023-091A", "EPOCH": "2025-12-22T04:14:55.924224", "MEAN_MOTION": 14.24027198, "ECCENTRICITY": 0.0003392, "INCLINATION": 98.6364, "RA_OF_ASC_NODE": 49.551, "ARG_OF_PERICENTER": 340.0949, "MEAN_ANOMALY": 20.0097, "EPHEMERIS_TYPE": 0, "CLASSIFICATION_TYPE": "U", "NORAD_CAT_ID": 57166, "ELEMENT_SET_NO": 999, "REV_AT_EPOCH": 12932, "BSTAR": 2.6677e-05, "MEAN_MOTION_DOT": 1.8e-07, "MEAN_MOTION_DDOT": 0}, "tle": {"line1": "1 57166U 23091A   25356.17703616  .00000018  00000+0  26677-4 0  9992", "line2": "2 57166  98.6364  49.5510 0003392 340.0949  20.0097 14.24027198129326"}}, "geometry": {"type": "Point", "coordinates": [74.06671628680267, -69.74562789657611]}}, {"type": "Feature", "properties": {"norad_id": 57399, "name": "TIANMU-1 07", "group": "weather", "lat": 58.89971150711885, "lon": -121.74347349646622, "alt_km": 473.94194077260636, "timestamp": "2025-12-22T08:58:19.987166+00:00", "meta": {"OBJECT_NAME": "TIANMU-1 07", "OBJECT_ID": "2023-101A", "EPOCH": "2025-12-22T03:44:01.580640", "MEAN_MOTION": 15.28196796, "ECCENTRICITY": 0.0005196, "INCLINATION": 97.286, "RA_OF_ASC_NODE": 45.798, "ARG_OF_PERICENTER": 57.6672, "MEAN_ANOMALY": 302.507, "EPHEMERIS_TYPE": 0, "CLASSIFICATION_TYPE": "U", "NORAD_CAT_ID": 57399, "ELEMENT_SET_NO": 999, "REV_AT_EPOCH": 13459, "BSTAR": 0.00029266, "MEAN_MOTION_DOT": 7.973e-05, "MEAN_MOTION_DDOT": 0}, "tle": {"line1": "1 57399U 23101A   25356.15557385  .00007973  00000+0  29266-3 0  9993", "line2": "2 57399  97.2860  45.7980 0005196  57.6672 302.5070 15.28196796134597"}}, "geometry": {"type": "Point", "coordinates": [-121.74347349646622, 58.89971150711885]}}, {"type": "Feature", "properties": {"norad_id": 57400, "name": "TIANMU-1 08", "group": "weather", "lat": -58.03632609109689, "lon": 57.63780121641978, "alt_km": 490.48731742623295, "timestamp": "2025-12-22T08:58:19.987179+00:00", "meta": {"OBJECT_NAME": "TIANMU-1 08", "OBJECT_ID": "2023-101B", "EPOCH": "2025-12-22T04:30:52.394688", "MEAN_MOTION": 15.28180225, "ECCENTRICITY": 0.0007143, "INCLINATION": 97.2849, "RA_OF_ASC_NODE": 45.626, "ARG_OF_PERICENTER": 57.2914, "MEAN_ANOMALY": 302.9014, "EPHEMERIS_TYPE": 0, "CLASSIFICATION_TYPE": "U", "NORAD_CAT_ID": 57400, "ELEMENT_SET_NO": 999, "REV_AT_EPOCH": 13459, "BSTAR": 0.00027336, "MEAN_MOTION_DOT": 7.441e-05, "MEAN_MOTION_DDOT": 0}, "tle": {"line1": "1 57400U 23101B   25356.18810642  .00007441  00000+0  27336-3 0  9993", "line2": "2 57400  97.2849  45.6260 0007143  57.2914 302.9014 15.28180225134598"}}, "geometry": {"type": "Point", "coordinates": [57.63780121641978, -58.03632609109689]}}]}